[{"OBJECT_NAME":"QIANFAN-35","OBJECT_ID":"2024-185S","EPOCH":"2026-03-09T22:26:33.581760","MEAN_MOTION":14.28128705,"ECCENTRICITY":0.00069627,"INCLINATION":88.9749,"RA_OF_ASC_NODE":66.6226,"ARG_OF_PERICENTER":20.1226,"MEAN_ANOMALY":340.0242,"EPHEMERIS_TYPE":0,"CLASSIFICATION_TYPE":"U","NORAD_CAT_ID":61568,"ELEMENT_SET_NO":999,"REV_AT_EPOCH":8262,"BSTAR":0.00043408229,"MEAN_MOTION_DOT":1.093e-5,"MEAN_MOTION_DDOT":0},{"OBJECT_NAME":"CZ-6A DEB","OBJECT_ID":"2022-151YZ","EPOCH":"2026-03-09T15:51:49.495392","MEAN_MOTION":14.50468705,"ECCENTRICITY":0.01047375,"INCLINATION":98.617,"RA_OF_ASC_NODE":114.0654,"ARG_OF_PERICENTER":274.8934,"MEAN_ANOMALY":84.0308,"EPHEMERIS_TYPE":0,"CLASSIFICATION_TYPE":"U","NORAD_CAT_ID":55551,"ELEMENT_SET_NO":999,"REV_AT_EPOCH":16853,"BSTAR":0.00097996839,"MEAN_MOTION_DOT":4.062e-5,"MEAN_MOTION_DDOT":0}]
